43929,IRIDIUM 171,2019,100.4,860.0,+,86.39,Active,1,LEO,USA,USA,Commercial/Government,Communications,Falcon,1 43929U 19002H   23245.75026703  .00000099  00000+0  28309-4 0  9998,2 43929  86.3940  59.3944 0001963  89.1152 271.0268 14.34217207242980,14.34217207,0.0001963,LEO
43930,IRIDIUM 170,2019,97.81,860.0,+,86.61,Active,1,LEO,USA,USA,Commercial/Government,Communications,Falcon,1 43930U 19002J   23245.73702846  .00000241  00000+0  34268-4 0  9997,2 43930  86.6062  59.2625 0002385  88.8601 271.2889 14.72251616249419,14.72251616,0.0002385,LEO
43931,IRIDIUM 167,2019,100.4,860.0,+,86.39,Active,1,LEO,USA,USA,Commercial/Government,Communications,Falcon,1 43931U 19002K   23245.74392476  .00000101  00000+0  28976-4 0  9997,2 43931  86.3931  59.2170 0002007  88.4822 271.6604 14.34216718242985,14.34216718,0.0002007,LEO
56726,IRIDIUM 181,2023,99.75,-1.0,+,86.86,Active,0,LEO,USA,USA,Unknown,Unknown,Unknown,1 56726U 23068S   23245.88879758  .00000518  00000+0  14726-3 0  9997,2 56726  86.8583  98.9457 0002662  54.8488 305.2962 14.43585681 15548,14.43585681,0.0002662,LEO
56727,IRIDIUM 177,2023,97.28,-1.0,+,86.19,Active,0,LEO,USA,USA,Unknown,Unknown,Unknown,1 56727U 23068T   23246.03944388  .00001417  00000+0  18299-3 0  9996,2 56727  86.1934  92.1704 0001899  87.3030 272.8408 14.80233715 15754,14.80233715,0.0001899,LEO
56728,IRIDIUM 174,2023,97.28,-1.0,+,86.19,Active,0,LEO,USA,USA,Unknown,Unknown,Unknown,1 56728U 23068U   23246.03401011  .00000228  00000+0  26422-4 0  9995,2 56728  86.1942  92.2539 0002482  91.3604 268.7901 14.80231269 15756,14.80231269,0.0002482,LEO
56729,IRIDIUM 178,2023,97.28,-1.0,+,86.57,Active,0,LEO,USA,USA,Unknown,Unknown,Unknown,1 56729U 23068V   23246.02817539  .00001166  00000+0  14997-3 0  9996,2 56729  86.5739  96.0703 0002332  93.0455 267.1033 14.80236691 15750,14.80236691,0.0002332,LEO
56730,IRIDIUM 179,2023,97.28,-1.0,+,86.67,Active,0,LEO,USA,USA,Unknown,Unknown,Unknown,1 56730U 23068W   23245.61716355  .00001485  00000+0  19206-3 0  9998,2 56730  86.6746  96.7477 0002226  91.2823 268.8654 14.80235821 15691,14.80235821,0.0002226,LEO
